[{"OBJECT_NAME":"STARLINK-36510","OBJECT_ID":"2026-005D","EPOCH":"2026-03-09T11:29:15.494784","MEAN_MOTION":15.2760452,"ECCENTRICITY":0.00012321,"INCLINATION":43.0006,"RA_OF_ASC_NODE":239.224,"ARG_OF_PERICENTER":255.5702,"MEAN_ANOMALY":104.5013,"EPHEMERIS_TYPE":0,"CLASSIFICATION_TYPE":"U","NORAD_CAT_ID":67407,"ELEMENT_SET_NO":999,"REV_AT_EPOCH":866,"BSTAR":0.0011886856,"MEAN_MOTION_DOT":0.00032617,"MEAN_MOTION_DDOT":0},{"OBJECT_NAME":"COSMOS 252 DEB","OBJECT_ID":"1968-097BM","EPOCH":"2026-03-09T19:23:01.251168","MEAN_MOTION":14.84266968,"ECCENTRICITY":0.01906429,"INCLINATION":62.1994,"RA_OF_ASC_NODE":322.7421,"ARG_OF_PERICENTER":219.9576,"MEAN_ANOMALY":138.735,"EPHEMERIS_TYPE":0,"CLASSIFICATION_TYPE":"U","NORAD_CAT_ID":3900,"ELEMENT_SET_NO":999,"REV_AT_EPOCH":87477,"BSTAR":0.00094776544,"MEAN_MOTION_DOT":0.00010849,"MEAN_MOTION_DDOT":0}]
